2026-01-01T04:45:41.198Z
HYPSO-1
1 51053U 22002BX  26001.19839350  .00048524  00000-0  74168-3 0  9999
2 51053  97.3069  77.1161 0003011 177.8129 182.3139 15.54256858220845

2026-01-01T06:18:23.781Z
HYPSO-1
1 51053U 22002BX  26001.26277525  .00049513  00000-0  75649-3 0  9991
2 51053  97.3069  77.1819 0003002 177.3785 182.7485 15.54263762220859

2026-01-01T15:34:38.868Z
HYPSO-1
1 51053U 22002BX  26001.64906098  .00050903  00000-0  77650-3 0  9996
2 51053  97.3068  77.5760 0002968 176.6563 183.4711 15.54301126220917

2026-01-01T17:07:21.290Z
HYPSO-1
1 51053U 22002BX  26001.71344086  .00051518  00000-0  78560-3 0  9991
2 51053  97.3067  77.6417 0002960 176.3071 183.8205 15.54308433220920

2026-01-01T20:12:46.077Z
HYPSO-1
1 51053U 22002BX  26001.84219997  .00055389  00000-0  84370-3 0  9993
2 51053  97.3065  77.7729 0002944 176.2098 183.9178 15.54321791220949

2026-01-01T23:18:10.757Z
HYPSO-1
1 51053U 22002BX  26001.97095784  .00051647  00000-0  78682-3 0  9995
2 51053  97.3066  77.9041 0002977 175.8490 184.2789 15.54333853220962

2026-01-02T03:56:17.623Z
HYPSO-1
1 51053U 22002BX  26002.16409286  .00053230  00000-0  81005-3 0  9996
2 51053  97.3065  78.1011 0002991 174.8837 185.2448 15.54357129220999

2026-01-02T07:01:42.043Z
HYPSO-1
1 51053U 22002BX  26002.29284773  .00053551  00000-0  81448-3 0  9999
2 51053  97.3066  78.2327 0002969 174.1451 185.9839 15.54371158221014

2026-01-02T14:45:12.768Z
HYPSO-1
1 51053U 22002BX  26002.61473112  .00053535  00000-0  81337-3 0  9991
2 51053  97.3066  78.5613 0002915 173.2724 186.8570 15.54400555221060

2026-01-02T17:50:36.866Z
HYPSO-1
1 51053U 22002BX  26002.74348225  .00054208  00000-0  82302-3 0  9992
2 51053  97.3065  78.6924 0002919 173.1521 186.9774 15.54416598221086

2026-01-02T19:23:18.864Z
HYPSO-1
1 51053U 22002BX  26002.80785723  .00054544  00000-0  82787-3 0  9997
2 51053  97.3065  78.7580 0002935 173.2377 186.8917 15.54424014221094

2026-01-02T22:28:42.816Z
HYPSO-1
1 51053U 22002BX  26002.93660667  .00053842  00000-0  81691-3 0  9993
2 51053  97.3065  78.8891 0002978 173.0532 187.0764 15.54436789221116

2026-01-03T04:39:30.402Z
HYPSO-1
1 51053U 22002BX  26003.19410188  .00055431  00000-0  83979-3 0  9990
2 51053  97.3065  79.1518 0003024 171.9553 188.1750 15.54470053221152

2026-01-03T06:12:12.226Z
HYPSO-1
1 51053U 22002BX  26003.25847484  .00055742  00000-0  84425-3 0  9992
2 51053  97.3064  79.2176 0003023 171.5821 188.5485 15.54477214221161

2026-01-03T12:22:59.312Z
HYPSO-1
1 51053U 22002BX  26003.51596426  .00054903  00000-0  83097-3 0  9990
2 51053  97.3063  79.4807 0002985 171.0667 189.0640 15.54499525221205

2026-01-03T15:28:22.726Z
HYPSO-1
1 51053U 22002BX  26003.64470748  .00046197  00000-0  69990-3 0  9994
2 51053  97.3061  79.6120 0002962 170.7165 189.4144 15.54511276221220

2026-01-03T23:11:50.847Z
HYPSO-1
1 51053U 22002BX  26003.96656074  .00050301  00000-0  76068-3 0  9993
2 51053  97.3059  79.9398 0002991 170.2199 189.9113 15.54543216221276

2026-01-04T03:49:55.475Z
HYPSO-1
1 51053U 22002BX  26004.15966985  .00047344  00000-0  71580-3 0  9997
2 51053  97.3058  80.1369 0003018 169.4738 190.6579 15.54563022221303

2026-01-04T06:55:18.450Z
HYPSO-1
1 51053U 22002BX  26004.28840799  .00042389  00000-0  64127-3 0  9998
2 51053  97.3059  80.2684 0002976 168.8671 191.2649 15.54570163221327

2026-01-04T11:33:22.777Z
HYPSO-1
1 51053U 22002BX  26004.48151363  .00042758  00000-0  64640-3 0  9992
2 51053  97.3059  80.4655 0002977 168.3802 191.7521 15.54587342221353

2026-01-04T14:38:45.593Z
HYPSO-1
1 51053U 22002BX  26004.61024993  .00038852  00000-0  58760-3 0  9991
2 51053  97.3058  80.5969 0002982 168.0914 192.0411 15.54595654221377

2026-01-04T20:49:30.976Z
HYPSO-1
1 51053U 22002BX  26004.86771963  .00040266  00000-0  60835-3 0  9992
2 51053  97.3057  80.8595 0002974 167.0527 193.0804 15.54617040221410

2026-01-04T22:22:12.279Z
HYPSO-1
1 51053U 22002BX  26004.93208657  .00041718  00000-0  62998-3 0  9990
2 51053  97.3057  80.9251 0002989 166.9701 193.1631 15.54622747221428

2026-01-05T04:32:57.257Z
HYPSO-1
1 51053U 22002BX  26005.18955159  .00041755  00000-0  63002-3 0  9992
2 51053  97.3055  81.1878 0002997 166.3467 193.7869 15.54645327221468

2026-01-05T06:05:38.440Z
HYPSO-1
1 51053U 22002BX  26005.25391714  .00042683  00000-0  64376-3 0  9997
2 51053  97.3055  81.2535 0003003 166.1552 193.9785 15.54651860221470

2026-01-05T12:16:23.009Z
HYPSO-1
1 51053U 22002BX  26005.51137743  .00044877  00000-0  67600-3 0  9996
2 51053  97.3053  81.5161 0002980 165.5884 194.5455 15.54675631221518

2026-01-05T15:21:45.116Z
HYPSO-1
1 51053U 22002BX  26005.64010551  .00049490  00000-0  74445-3 0  9998
2 51053  97.3053  81.6474 0002963 165.0480 195.0863 15.54693016221532

2026-01-06T03:43:12.993Z
HYPSO-1
1 51053U 22002BX  26006.15501150  .00042370  00000-0  63724-3 0  9993
2 51053  97.3052  82.1732 0002941 163.3014 196.8338 15.54731017221613

2026-01-06T06:48:34.749Z
HYPSO-1
1 51053U 22002BX  26006.28373553  .00038468  00000-0  57879-3 0  9998
2 51053  97.3051  82.3045 0002959 162.9385 197.1969 15.54739994221634

2026-01-06T11:26:37.286Z
HYPSO-1
1 51053U 22002BX  26006.47682044  .00037034  00000-0  55708-3 0  9994
2 51053  97.3050  82.5015 0002968 162.2107 197.9252 15.54753789221661

2026-01-06T14:31:58.877Z
HYPSO-1
1 51053U 22002BX  26006.60554256  .00037797  00000-0  56824-3 0  9998
2 51053  97.3050  82.6327 0002973 161.8119 198.3243 15.54765210221681

2026-01-06T23:48:03.294Z
HYPSO-1
1 51053U 22002BX  26006.99170480  .00035537  00000-0  53401-3 0  9991
2 51053  97.3049  83.0269 0002993 160.3781 199.7589 15.54790832221743

2026-01-07T04:26:05.272Z
HYPSO-1
1 51053U 22002BX  26007.18478325  .00036206  00000-0  54367-3 0  9998
2 51053  97.3048  83.2239 0003001 159.8162 200.3211 15.54806187221773

2026-01-07T05:58:45.893Z
HYPSO-1
1 51053U 22002BX  26007.24914229  .00036509  00000-0  54809-3 0  9990
2 51053  97.3048  83.2896 0003007 159.5797 200.5578 15.54811324221787

2026-01-07T12:09:28.256Z
HYPSO-1
1 51053U 22002BX  26007.50657704  .00032807  00000-0  49263-3 0  9996
2 51053  97.3047  83.5524 0003023 158.7587 201.3793 15.54826201221826

2026-01-07T19:52:50.850Z
HYPSO-1
1 51053U 22002BX  26007.82836632  .00031590  00000-0  47411-3 0  9991
2 51053  97.3046  83.8809 0003036 157.5196 202.6191 15.54847831221874

2026-01-07T22:58:11.775Z
HYPSO-1
1 51053U 22002BX  26007.95708074  .00032217  00000-0  48329-3 0  9999
2 51053  97.3046  84.0122 0003055 157.0646 203.0745 15.54856526221894

2026-01-08T03:36:13.031Z
HYPSO-1
1 51053U 22002BX  26008.15015083  .00034203  00000-0  51256-3 0  9993
2 51053  97.3045  84.2093 0003050 156.5524 203.5870 15.54872379221928

2026-01-08T06:41:33.768Z
HYPSO-1
1 51053U 22002BX  26008.27886306  .00035595  00000-0  53306-3 0  9993
2 51053  97.3045  84.3407 0003066 156.0406 204.0992 15.54883194221949

2026-01-08T11:19:34.752Z
HYPSO-1
1 51053U 22002BX  26008.47193000  .00039432  00000-0  58973-3 0  9996
2 51053  97.3045  84.5379 0003076 155.4323 204.7078 15.54900056221973

2026-01-08T12:52:15.036Z
HYPSO-1
1 51053U 22002BX  26008.53628514  .00040029  00000-0  59847-3 0  9991
2 51053  97.3045  84.6037 0003074 155.2257 204.9146 15.54905895221982

2026-01-08T22:08:16.426Z
HYPSO-1
1 51053U 22002BX  26008.92241234  .00034752  00000-0  51962-3 0  9990
2 51053  97.3044  84.9978 0003073 153.7101 206.4310 15.54931174222045

2026-01-09T04:18:56.990Z
HYPSO-1
1 51053U 22002BX  26009.17982628  .00035940  00000-0  53683-3 0  9999
2 51053  97.3044  85.2606 0003085 152.9320 207.2096 15.54952608222083